{
  "constellation": "oneweb",
  "timestamp": "2025-07-21T05:06:13.717346+00:00",
  "satellite_count": 651,
  "data": [
    {
      "satellite_name": "ONEWEB-0306",
      "catalog_number": 49188,
      "epoch_year": 2025,
      "epoch_day": 201.78967559,
      "first_derivative": 8.1e-07,
      "second_derivative": 0.0,
      "drag_term": 0.0,
      "inclination": 87.9123,
      "right_ascension": 41.2769,
      "eccentricity": 0.0001959,
      "argument_of_perigee": 82.7046,
      "mean_anomaly": 277.4309,
      "mean_motion": 13.18687685,
      "revolution_number": 18762,
      "line1": "1 49188U 21083C   25201.78967559  .00000081  00000+0  17233-3 0  9997",
      "line2": "2 49188  87.9123  41.2769 0001959  82.7046 277.4309 13.18687685187621",
      "last_updated": "2025-07-21T05:06:13.714377+00:00",
      "constellation": "oneweb"
    },
    {
      "satellite_name": "ONEWEB-0307",
      "catalog_number": 49189,
      "epoch_year": 2025,
      "epoch_day": 201.78708553,
      "first_derivative": -8.29e-06,
      "second_derivative": 0.0,
      "drag_term": -0.0023052,
      "inclination": 87.8961,
      "right_ascension": 26.1119,
      "eccentricity": 0.0001855,
      "argument_of_perigee": 79.2226,
      "mean_anomaly": 280.9112,
      "mean_motion": 13.13473634,
      "revolution_number": 18871,
      "line1": "1 49189U 21083D   25201.78708553 -.00000829  00000+0 -23052-2 0  9992",
      "line2": "2 49189  87.8961  26.1119 0001855  79.2226 280.9112 13.13473634188712",
      "last_updated": "2025-07-21T05:06:13.714379+00:00",
      "constellation": "oneweb"
    },
    {
      "satellite_name": "ONEWEB-0320",
      "catalog_number": 49190,
      "epoch_year": 2025,
      "epoch_day": 201.49277467,
      "first_derivative": 1.4e-07,
      "second_derivative": 0.0,
      "drag_term": 0.0,
      "inclination": 87.9122,
      "right_ascension": 41.3649,
      "eccentricity": 0.0001763,
      "argument_of_perigee": 87.2332,
      "mean_anomaly": 272.9002,
      "mean_motion": 13.18685278,
      "revolution_number": 18626,
      "line1": "1 49190U 21083E   25201.49277467  .00000014  00000+0  19909-5 0  9990",
      "line2": "2 49190  87.9122  41.3649 0001763  87.2332 272.9002 13.18685278186267",
      "last_updated": "2025-07-21T05:06:13.714381+00:00",
      "constellation": "oneweb"
    },
    {
      "satellite_name": "ONEWEB-0321",
      "catalog_number": 49191,
      "epoch_year": 2025,
      "epoch_day": 201.61345179,
      "first_derivative": 4.1e-07,
      "second_derivative": 0.0,
      "drag_term": 0.0,
      "inclination": 87.928,
      "right_ascension": 340.4903,
      "eccentricity": 0.0002084,
      "argument_of_perigee": 90.1147,
      "mean_anomaly": 270.0225,
      "mean_motion": 13.20771579,
      "revolution_number": 19306,
      "line1": "1 49191U 21083F   25201.61345179  .00000041  00000+0  69265-4 0  9990",
      "line2": "2 49191  87.9280 340.4903 0002084  90.1147 270.0225 13.20771579193068",
      "last_updated": "2025-07-21T05:06:13.714383+00:00",
      "constellation": "oneweb"
    },
    {
      "satellite_name": "ONEWEB-0322",
      "catalog_number": 49192,
      "epoch_year": 2025,
      "epoch_day": 201.7828522,
      "first_derivative": -3.11e-06,
      "second_derivative": 0.0,
      "drag_term": -0.0008857,
      "inclination": 87.896,
      "right_ascension": 26.1023,
      "eccentricity": 0.0002116,
      "argument_of_perigee": 82.3469,
      "mean_anomaly": 277.79,
      "mean_motion": 13.134705,
      "revolution_number": 18870,
      "line1": "1 49192U 21083G   25201.78285220 -.00000311  00000+0 -88570-3 0  9990",
      "line2": "2 49192  87.8960  26.1023 0002116  82.3469 277.7900 13.13470500188701",
      "last_updated": "2025-07-21T05:06:13.714385+00:00",
      "constellation": "oneweb"
    },
    {
      "satellite_name": "ONEWEB-0324",
      "catalog_number": 49193,
      "epoch_year": 2025,
      "epoch_day": 201.78308942,
      "first_derivative": 7.7e-07,
      "second_derivative": 0.0,
      "drag_term": 0.0,
      "inclination": 87.912,
      "right_ascension": 41.2865,
      "eccentricity": 0.0001748,
      "argument_of_perigee": 83.2875,
      "mean_anomaly": 276.8455,
      "mean_motion": 13.1868563,
      "revolution_number": 18760,
      "line1": "1 49193U 21083H   25201.78308942  .00000077  00000+0  16354-3 0  9996",
      "line2": "2 49193  87.9120  41.2865 0001748  83.2875 276.8455 13.18685630187604",
      "last_updated": "2025-07-21T05:06:13.714387+00:00",
      "constellation": "oneweb"
    },
    {
      "satellite_name": "ONEWEB-0325",
      "catalog_number": 49194,
      "epoch_year": 2025,
      "epoch_day": 201.78639177,
      "first_derivative": 4e-07,
      "second_derivative": 0.0,
      "drag_term": 0.0,
      "inclination": 87.9124,
      "right_ascension": 41.3026,
      "eccentricity": 0.0001889,
      "argument_of_perigee": 86.425,
      "mean_anomaly": 273.7098,
      "mean_motion": 13.18687316,
      "revolution_number": 18761,
      "line1": "1 49194U 21083J   25201.78639177  .00000040  00000+0  69568-4 0  9990",
      "line2": "2 49194  87.9124  41.3026 0001889  86.4250 273.7098 13.18687316187610",
      "last_updated": "2025-07-21T05:06:13.714389+00:00",
      "constellation": "oneweb"
    },
    {
      "satellite_name": "ONEWEB-0326",
      "catalog_number": 49195,
      "epoch_year": 2025,
      "epoch_day": 201.49785532,
      "first_derivative": 6.8e-07,
      "second_derivative": 0.0,
      "drag_term": 0.0,
      "inclination": 87.912,
      "right_ascension": 41.35,
      "eccentricity": 0.0001618,
      "argument_of_perigee": 99.2142,
      "mean_anomaly": 260.9173,
      "mean_motion": 13.18687081,
      "revolution_number": 18628,
      "line1": "1 49195U 21083K   25201.49785532  .00000068  00000+0  13886-3 0  9997",
      "line2": "2 49195  87.9120  41.3500 0001618  99.2142 260.9173 13.18687081186289",
      "last_updated": "2025-07-21T05:06:13.714392+00:00",
      "constellation": "oneweb"
    },
    {
      "satellite_name": "ONEWEB-0327",
      "catalog_number": 49196,
      "epoch_year": 2025,
      "epoch_day": 201.49758613,
      "first_derivative": 9e-07,
      "second_derivative": 0.0,
      "drag_term": 0.0,
      "inclination": 87.9119,
      "right_ascension": 41.3789,
      "eccentricity": 0.0001694,
      "argument_of_perigee": 97.5011,
      "mean_anomaly": 262.6313,
      "mean_motion": 13.18685523,
      "revolution_number": 18630,
      "line1": "1 49196U 21083L   25201.49758613  .00000090  00000+0  19603-3 0  9996",
      "line2": "2 49196  87.9119  41.3789 0001694  97.5011 262.6313 13.18685523186304",
      "last_updated": "2025-07-21T05:06:13.714394+00:00",
      "constellation": "oneweb"
    },
    {
      "satellite_name": "ONEWEB-0328",
      "catalog_number": 49197,
      "epoch_year": 2025,
      "epoch_day": 201.46798805,
      "first_derivative": -3.2e-06,
      "second_derivative": 0.0,
      "drag_term": -0.00091128,
      "inclination": 87.8955,
      "right_ascension": 26.1067,
      "eccentricity": 0.0001614,
      "argument_of_perigee": 86.6886,
      "mean_anomaly": 273.4428,
      "mean_motion": 13.1347013,
      "revolution_number": 18735,
      "line1": "1 49197U 21083M   25201.46798805 -.00000320  00000+0 -91128-3 0  9991",
      "line2": "2 49197  87.8955  26.1067 0001614  86.6886 273.4428 13.13470130187357",
      "last_updated": "2025-07-21T05:06:13.714396+00:00",
      "constellation": "oneweb"
    },
    {
      "satellite_name": "ONEWEB-0331",
      "catalog_number": 49198,
      "epoch_year": 2025,
      "epoch_day": 201.56700013,
      "first_derivative": 5.6e-07,
      "second_derivative": 0.0,
      "drag_term": 0.0,
      "inclination": 87.912,
      "right_ascension": 41.3283,
      "eccentricity": 0.000145,
      "argument_of_perigee": 92.5122,
      "mean_anomaly": 267.6177,
      "mean_motion": 13.18686181,
      "revolution_number": 18630,
      "line1": "1 49198U 21083N   25201.56700013  .00000056  00000+0  10862-3 0  9997",
      "line2": "2 49198  87.9120  41.3283 0001450  92.5122 267.6177 13.18686181186309",
      "last_updated": "2025-07-21T05:06:13.714398+00:00",
      "constellation": "oneweb"
    },
    {
      "satellite_name": "ONEWEB-0333",
      "catalog_number": 49199,
      "epoch_year": 2025,
      "epoch_day": 201.46291,
      "first_derivative": -4.23e-06,
      "second_derivative": 0.0,
      "drag_term": -0.0011937,
      "inclination": 87.8955,
      "right_ascension": 26.1757,
      "eccentricity": 0.0001916,
      "argument_of_perigee": 89.9854,
      "mean_anomaly": 270.1495,
      "mean_motion": 13.13470116,
      "revolution_number": 18736,
      "line1": "1 49199U 21083P   25201.46291000 -.00000423  00000+0 -11937-2 0  9991",
      "line2": "2 49199  87.8955  26.1757 0001916  89.9854 270.1495 13.13470116187364",
      "last_updated": "2025-07-21T05:06:13.714400+00:00",
      "constellation": "oneweb"
    },
    {
      "satellite_name": "ONEWEB-0334",
      "catalog_number": 49200,
      "epoch_year": 2025,
      "epoch_day": 201.85809057,
      "first_derivative": 1.2e-07,
      "second_derivative": 0.0,
      "drag_term": -1.4343000000000002e-06,
      "inclination": 87.9277,
      "right_ascension": 340.4749,
      "eccentricity": 0.0002868,
      "argument_of_perigee": 89.6325,
      "mean_anomaly": 270.5136,
      "mean_motion": 13.20771245,
      "revolution_number": 19434,
      "line1": "1 49200U 21083Q   25201.85809057  .00000012  00000+0 -14343-5 0  9994",
      "line2": "2 49200  87.9277 340.4749 0002868  89.6325 270.5136 13.20771245194342",
      "last_updated": "2025-07-21T05:06:13.714402+00:00",
      "constellation": "oneweb"
    }
  ]
}